start=new Date('2022-06-24T00:00:00.000Z').valueOf();
sats=[{"LAUNCH_DATE":"2022-02-25","EPHEMERIS_TYPE":"0","CENTER_NAME":"EARTH","ELEMENT_SET_NO":"999","ARG_OF_PERICENTER":"47.2925","GP_ID":"206687531","OBJECT_ID":"2022-017AE","MEAN_MOTION":"15.08859808","SITE":"AFWTR","DECAY_DATE":null,"TLE_LINE1":"1 51796U 22017AE  22174.58334491 -.00036284  00000-0 -22719-2 0  9991","OBJECT_NAME":"STARLINK-3630","TLE_LINE2":"2 51796  53.2166 312.4288 0001731  47.2925 171.5919 15.08859808  1301","PERIOD":"95.436","INCLINATION":"53.2166","RA_OF_ASC_NODE":"312.4288","MEAN_ELEMENT_THEORY":"SGP4","EPOCH":"2022-06-23T14:00:01.000224","RCS_SIZE":"LARGE","MEAN_MOTION_DOT":"-0.00036284","MEAN_ANOMALY":"171.5919","OBJECT_TYPE":"PAYLOAD","APOAPSIS":"540.882","PERIAPSIS":"538.487","MEAN_MOTION_DDOT":"0.0000000000000","CLASSIFICATION_TYPE":"U","COUNTRY_CODE":"US","FILE":"3500539","REV_AT_EPOCH":"130","BSTAR":"-0.00227190000000","ECCENTRICITY":"0.00017310","NORAD_CAT_ID":"51796","REF_FRAME":"TEME","SEMIMAJOR_AXIS":"6917.820","TIME_SYSTEM":"UTC"},{"GP_ID":"206657909","ARG_OF_PERICENTER":"54.6275","OBJECT_ID":"2022-017AF","SITE":"AFWTR","MEAN_MOTION":"15.08858720","LAUNCH_DATE":"2022-02-25","CENTER_NAME":"EARTH","EPHEMERIS_TYPE":"0","ELEMENT_SET_NO":"999","TLE_LINE2":"2 51797  53.2186 312.4316 0001710  54.6275  44.2884 15.08858720 19390","DECAY_DATE":null,"TLE_LINE1":"1 51797U 22017AF  22174.58334491 -.00061006  00000-0 -38457-2 0  9998","OBJECT_NAME":"STARLINK-3627","MEAN_ELEMENT_THEORY":"SGP4","EPOCH":"2022-06-23T14:00:01.000224","RCS_SIZE":"LARGE","PERIOD":"95.436","INCLINATION":"53.2186","RA_OF_ASC_NODE":"312.4316","MEAN_MOTION_DOT":"-0.00061006","APOAPSIS":"540.871","MEAN_MOTION_DDOT":"0.0000000000000","PERIAPSIS":"538.505","OBJECT_TYPE":"PAYLOAD","MEAN_ANOMALY":"44.2884","FILE":"3500320","REV_AT_EPOCH":"1939","BSTAR":"-0.00384570000000","CLASSIFICATION_TYPE":"U","COUNTRY_CODE":"US","TIME_SYSTEM":"UTC","NORAD_CAT_ID":"51797","ECCENTRICITY":"0.00017100","REF_FRAME":"TEME","SEMIMAJOR_AXIS":"6917.823"},{"SEMIMAJOR_AXIS":"6917.880","REF_FRAME":"TEME","NORAD_CAT_ID":"51798","ECCENTRICITY":"0.00017880","TIME_SYSTEM":"UTC","COUNTRY_CODE":"US","CLASSIFICATION_TYPE":"U","BSTAR":"-0.00088495000000","REV_AT_EPOCH":"130","FILE":"3500539","MEAN_ANOMALY":"187.2191","OBJECT_TYPE":"PAYLOAD","MEAN_MOTION_DDOT":"0.0000000000000","PERIAPSIS":"538.509","APOAPSIS":"540.982","MEAN_MOTION_DOT":"-0.00014345","RA_OF_ASC_NODE":"312.4263","INCLINATION":"53.2159","PERIOD":"95.438","RCS_SIZE":"LARGE","EPOCH":"2022-06-23T14:00:01.000224","MEAN_ELEMENT_THEORY":"SGP4","OBJECT_NAME":"STARLINK-3634","TLE_LINE1":"1 51798U 22017AG  22174.58334491 -.00014345  00000-0 -88495-3 0  9991","DECAY_DATE":null,"TLE_LINE2":"2 51798  53.2159 312.4263 0001788  51.6724 187.2191 15.08839987  1308","ELEMENT_SET_NO":"999","EPHEMERIS_TYPE":"0","CENTER_NAME":"EARTH","LAUNCH_DATE":"2022-02-25","MEAN_MOTION":"15.08839987","SITE":"AFWTR","GP_ID":"206686530","OBJECT_ID":"2022-017AG","ARG_OF_PERICENTER":"51.6724"},{"ELEMENT_SET_NO":"999","CENTER_NAME":"EARTH","EPHEMERIS_TYPE":"0","LAUNCH_DATE":"2022-02-25","SITE":"AFWTR","MEAN_MOTION":"15.08838367","GP_ID":"206659191","ARG_OF_PERICENTER":"52.7593","OBJECT_ID":"2022-017AH","OBJECT_NAME":"STARLINK-3637","TLE_LINE1":"1 51799U 22017AH  22174.58334491 -.00018991  00000-0 -11783-2 0  9998","DECAY_DATE":null,"TLE_LINE2":"2 51799  53.2202 312.4304 0001472  52.7593 126.1342 15.08838367 19344","RA_OF_ASC_NODE":"312.4304","INCLINATION":"53.2202","PERIOD":"95.438","EPOCH":"2022-06-23T14:00:01.000224","RCS_SIZE":"MEDIUM","MEAN_ELEMENT_THEORY":"SGP4","MEAN_MOTION_DOT":"-0.00018991","MEAN_ANOMALY":"126.1342","OBJECT_TYPE":"PAYLOAD","MEAN_MOTION_DDOT":"0.0000000000000","PERIAPSIS":"538.732","APOAPSIS":"540.769","COUNTRY_CODE":"US","CLASSIFICATION_TYPE":"U","BSTAR":"-0.00117830000000","REV_AT_EPOCH":"1934","FILE":"3500373","REF_FRAME":"TEME","SEMIMAJOR_AXIS":"6917.885","NORAD_CAT_ID":"51799","ECCENTRICITY":"0.00014720","TIME_SYSTEM":"UTC"},{"MEAN_MOTION_DOT":"0.00012182","MEAN_ELEMENT_THEORY":"SGP4","EPOCH":"2022-06-23T22:00:00.999936","RCS_SIZE":"LARGE","PERIOD":"95.438","INCLINATION":"53.2150","RA_OF_ASC_NODE":"310.9278","TLE_LINE2":"2 51800  53.2150 310.9278 0001578  45.8786 239.4040 15.08835273 19432","DECAY_DATE":null,"TLE_LINE1":"1 51800U 22017AJ  22174.91667824  .00012182  00000-0  78225-3 0  9996","OBJECT_NAME":"STARLINK-3600","GP_ID":"206689463","OBJECT_ID":"2022-017AJ","ARG_OF_PERICENTER":"45.8786","MEAN_MOTION":"15.08835273","SITE":"AFWTR","LAUNCH_DATE":"2022-02-25","EPHEMERIS_TYPE":"0","CENTER_NAME":"EARTH","ELEMENT_SET_NO":"999","TIME_SYSTEM":"UTC","NORAD_CAT_ID":"51800","ECCENTRICITY":"0.00015780","SEMIMAJOR_AXIS":"6917.895","REF_FRAME":"TEME","FILE":"3500580","REV_AT_EPOCH":"1943","BSTAR":"0.00078225000000","CLASSIFICATION_TYPE":"U","COUNTRY_CODE":"US","APOAPSIS":"540.851","PERIAPSIS":"538.668","MEAN_MOTION_DDOT":"0.0000000000000","OBJECT_TYPE":"PAYLOAD","MEAN_ANOMALY":"239.4040"},{"CLASSIFICATION_TYPE":"U","COUNTRY_CODE":"US","FILE":"3500580","REV_AT_EPOCH":"1939","BSTAR":"0.00092078000000","MEAN_ANOMALY":"167.9733","OBJECT_TYPE":"PAYLOAD","APOAPSIS":"541.088","PERIAPSIS":"538.476","MEAN_MOTION_DDOT":"0.0000000000000","ECCENTRICITY":"0.00018880","NORAD_CAT_ID":"51801","REF_FRAME":"TEME","SEMIMAJOR_AXIS":"6917.917","TIME_SYSTEM":"UTC","DECAY_DATE":null,"TLE_LINE1":"1 51801U 22017AK  22174.91667824  .00014392  00000-0  92078-3 0  9994","OBJECT_NAME":"STARLINK-3592","TLE_LINE2":"2 51801  53.2142 310.9278 0001888  42.5244 167.9733 15.08828104 19395","LAUNCH_DATE":"2022-02-25","EPHEMERIS_TYPE":"0","CENTER_NAME":"EARTH","ELEMENT_SET_NO":"999","OBJECT_ID":"2022-017AK","GP_ID":"206688961","ARG_OF_PERICENTER":"42.5244","MEAN_MOTION":"15.08828104","SITE":"AFWTR","MEAN_MOTION_DOT":"0.00014392","PERIOD":"95.438","INCLINATION":"53.2142","RA_OF_ASC_NODE":"310.9278","MEAN_ELEMENT_THEORY":"SGP4","EPOCH":"2022-06-23T22:00:00.999936","RCS_SIZE":"LARGE"},{"INCLINATION":"53.2181","PERIOD":"95.437","RA_OF_ASC_NODE":"310.9355","MEAN_ELEMENT_THEORY":"SGP4","RCS_SIZE":"LARGE","EPOCH":"2022-06-23T22:00:00.999936","MEAN_MOTION_DOT":"-0.00005423","LAUNCH_DATE":"2022-02-25","ELEMENT_SET_NO":"999","EPHEMERIS_TYPE":"0","CENTER_NAME":"EARTH","ARG_OF_PERICENTER":"48.6343","GP_ID":"206689461","OBJECT_ID":"2022-017AL","MEAN_MOTION":"15.08855430","SITE":"AFWTR","DECAY_DATE":null,"OBJECT_NAME":"STARLINK-3557","TLE_LINE1":"1 51802U 22017AL  22174.91667824 -.00005423  00000-0 -32275-3 0  9995","TLE_LINE2":"2 51802  53.2181 310.9355 0001726  48.6343  56.6270 15.08855430 19395","NORAD_CAT_ID":"51802","ECCENTRICITY":"0.00017260","REF_FRAME":"TEME","SEMIMAJOR_AXIS":"6917.833","TIME_SYSTEM":"UTC","OBJECT_TYPE":"PAYLOAD","MEAN_ANOMALY":"56.6270","PERIAPSIS":"538.504","MEAN_MOTION_DDOT":"0.0000000000000","APOAPSIS":"540.892","CLASSIFICATION_TYPE":"U","COUNTRY_CODE":"US","FILE":"3500580","BSTAR":"-0.00032275000000","REV_AT_EPOCH":"1939"},{"MEAN_MOTION_DOT":"-0.00028333","MEAN_ELEMENT_THEORY":"SGP4","RCS_SIZE":"LARGE","EPOCH":"2022-06-23T14:00:01.000224","INCLINATION":"53.2164","PERIOD":"95.437","RA_OF_ASC_NODE":"312.4277","TLE_LINE2":"2 51803  53.2164 312.4277 0001645  51.9551 206.9470 15.08856275 19339","DECAY_DATE":null,"OBJECT_NAME":"STARLINK-3544","TLE_LINE1":"1 51803U 22017AM  22174.58334491 -.00028333  00000-0 -17683-2 0  9990","OBJECT_ID":"2022-017AM","GP_ID":"206661004","ARG_OF_PERICENTER":"51.9551","MEAN_MOTION":"15.08856275","SITE":"AFWTR","LAUNCH_DATE":"2022-02-25","ELEMENT_SET_NO":"999","CENTER_NAME":"EARTH","EPHEMERIS_TYPE":"0","TIME_SYSTEM":"UTC","NORAD_CAT_ID":"51803","ECCENTRICITY":"0.00016450","SEMIMAJOR_AXIS":"6917.831","REF_FRAME":"TEME","FILE":"3500426","BSTAR":"-0.00176830000000","REV_AT_EPOCH":"1933","CLASSIFICATION_TYPE":"U","COUNTRY_CODE":"US","MEAN_MOTION_DDOT":"0.0000000000000","PERIAPSIS":"538.558","APOAPSIS":"540.834","MEAN_ANOMALY":"206.9470","OBJECT_TYPE":"PAYLOAD"},{"NORAD_CAT_ID":"51804","ECCENTRICITY":"0.00013450","REF_FRAME":"TEME","SEMIMAJOR_AXIS":"6917.883","TIME_SYSTEM":"UTC","OBJECT_TYPE":"PAYLOAD","MEAN_ANOMALY":"115.1908","APOAPSIS":"540.679","MEAN_MOTION_DDOT":"0.0000000000000","PERIAPSIS":"538.818","CLASSIFICATION_TYPE":"U","COUNTRY_CODE":"US","FILE":"3500643","REV_AT_EPOCH":"1973","BSTAR":"-0.00194830000000","PERIOD":"95.438","INCLINATION":"53.2176","RA_OF_ASC_NODE":"290.9167","MEAN_ELEMENT_THEORY":"SGP4","EPOCH":"2022-06-23T22:00:00.999936","RCS_SIZE":"LARGE","MEAN_MOTION_DOT":"-0.00031160","LAUNCH_DATE":"2022-02-25","EPHEMERIS_TYPE":"0","CENTER_NAME":"EARTH","ELEMENT_SET_NO":"999","ARG_OF_PERICENTER":"85.2984","GP_ID":"206690301","OBJECT_ID":"2022-017AN","MEAN_MOTION":"15.08839002","SITE":"AFWTR","DECAY_DATE":null,"TLE_LINE1":"1 51804U 22017AN  22174.91667824 -.00031160  00000-0 -19483-2 0  9999","OBJECT_NAME":"STARLINK-3601","TLE_LINE2":"2 51804  53.2176 290.9167 0001345  85.2984 115.1908 15.08839002 19738"},{"DECAY_DATE":null,"TLE_LINE1":"1 51805U 22017AP  22174.58334491 -.00008168  00000-0 -49578-3 0  9995","OBJECT_NAME":"STARLINK-3605","TLE_LINE2":"2 51805  53.2141 292.4319 0001716  48.7796 160.0817 15.08831208 19664","LAUNCH_DATE":"2022-02-25","EPHEMERIS_TYPE":"0","CENTER_NAME":"EARTH","ELEMENT_SET_NO":"999","GP_ID":"206657835","ARG_OF_PERICENTER":"48.7796","OBJECT_ID":"2022-017AP","MEAN_MOTION":"15.08831208","SITE":"AFWTR","MEAN_MOTION_DOT":"-0.00008168","PERIOD":"95.438","INCLINATION":"53.2141","RA_OF_ASC_NODE":"292.4319","MEAN_ELEMENT_THEORY":"SGP4","RCS_SIZE":"LARGE","EPOCH":"2022-06-23T14:00:01.000224","CLASSIFICATION_TYPE":"U","COUNTRY_CODE":"US","FILE":"3500317","REV_AT_EPOCH":"1966","BSTAR":"-0.00049578000000","MEAN_ANOMALY":"160.0817","OBJECT_TYPE":"PAYLOAD","APOAPSIS":"540.959","PERIAPSIS":"538.585","MEAN_MOTION_DDOT":"0.0000000000000","NORAD_CAT_ID":"51805","ECCENTRICITY":"0.00017160","REF_FRAME":"TEME","SEMIMAJOR_AXIS":"6917.907","TIME_SYSTEM":"UTC"}];
